{
  "type": "FeatureCollection",
  "features": [
    {
      "type": "Feature",
      "properties": {
        "norad_id": 27954,
        "name": "GALAXY 13 (HORIZONS-1)",
        "group": "intelsat",
        "lat": -0.9340702941179966,
        "lon": -5.578927075375569,
        "alt_km": 35787.028052904614,
        "timestamp": "2025-12-15T04:01:20.110383+00:00",
        "meta_object_name": "GALAXY 13 (HORIZONS-1)",
        "meta_object_id": "2003-044A",
        "meta_epoch": "2025-12-14T05:51:25.913952",
        "meta_mean_motion": 1.00272215,
        "meta_eccentricity": 0.00020641,
        "meta_inclination": 0.9396,
        "meta_ra_of_asc_node": 86.4489,
        "meta_arg_of_pericenter": 171.0034,
        "meta_mean_anomaly": 123.566,
        "meta_ephemeris_type": 0,
        "meta_classification_type": "U",
        "meta_norad_cat_id": 27954,
        "meta_element_set_no": 999,
        "meta_rev_at_epoch": 4471,
        "meta_bstar": 0,
        "meta_mean_motion_dot": 1.5e-06,
        "meta_mean_motion_ddot": 0,
        "tle_line1": "1 27954U 03044A   25348.24404993  .00000150  00000+0  00000+0 0  9999",
        "tle_line2": "2 27954   0.9396  86.4489 0002064 171.0034 123.5660  1.00272215 44712"
      },
      "geometry": {
        "type": "Point",
        "coordinates": [
          -5.578927075375569,
          -0.9340702941179966
        ]
      }
    },
    {
      "type": "Feature",
      "properties": {
        "norad_id": 28358,
        "name": "INTELSAT 10-02",
        "group": "intelsat",
        "lat": 0.021214569138486475,
        "lon": 143.43385504888982,
        "alt_km": 35790.013987741426,
        "timestamp": "2025-12-15T04:01:20.110397+00:00",
        "meta_object_name": "INTELSAT 10-02",
        "meta_object_id": "2004-022A",
        "meta_epoch": "2025-12-14T06:33:51.850656",
        "meta_mean_motion": 1.00272396,
        "meta_eccentricity": 0.00010838,
        "meta_inclination": 0.024,
        "meta_ra_of_asc_node": 68.4015,
        "meta_arg_of_pericenter": 230.3312,
        "meta_mean_anomaly": 241.9655,
        "meta_ephemeris_type": 0,
        "meta_classification_type": "U",
        "meta_norad_cat_id": 28358,
        "meta_element_set_no": 999,
        "meta_rev_at_epoch": 7870,
        "meta_bstar": 0,
        "meta_mean_motion_dot": 7e-08,
        "meta_mean_motion_ddot": 0,
        "tle_line1": "1 28358U 04022A   25348.27351679  .00000007  00000+0  00000+0 0  9991",
        "tle_line2": "2 28358   0.0240  68.4015 0001083 230.3312 241.9655  1.00272396 78708"
      },
      "geometry": {
        "type": "Point",
        "coordinates": [
          143.43385504888982,
          0.021214569138486475
        ]
      }
    },
    {
      "type": "Feature",
      "properties": {
        "norad_id": 28626,
        "name": "XM-3 (RHYTHM)",
        "group": "intelsat",
        "lat": 0.02155797736368358,
        "lon": -112.83154925325343,
        "alt_km": 36162.5025404135,
        "timestamp": "2025-12-15T04:01:20.110409+00:00",
        "meta_object_name": "XM-3 (RHYTHM)",
        "meta_object_id": "2005-008A",
        "meta_epoch": "2025-12-14T05:21:51.247584",
        "meta_mean_motion": 0.9895183,
        "meta_eccentricity": 0.00016408,
        "meta_inclination": 0.1786,
        "meta_ra_of_asc_node": 81.6747,
        "meta_arg_of_pericenter": 273.4464,
        "meta_mean_anomaly": 275.7618,
        "meta_ephemeris_type": 0,
        "meta_classification_type": "U",
        "meta_norad_cat_id": 28626,
        "meta_element_set_no": 999,
        "meta_rev_at_epoch": 4076,
        "meta_bstar": 0,
        "meta_mean_motion_dot": -9.9e-07,
        "meta_mean_motion_ddot": 0,
        "tle_line1": "1 28626U 05008A   25348.22350981 -.00000099  00000+0  00000+0 0  9996",
        "tle_line2": "2 28626   0.1786  81.6747 0001640 273.4464 275.7618  0.98951830 40768"
      },
      "geometry": {
        "type": "Point",
        "coordinates": [
          -112.83154925325343,
          0.02155797736368358
        ]
      }
    },
    {
      "type": "Feature",
      "properties": {
        "norad_id": 28659,
        "name": "DIRECTV 8",
        "group": "intelsat",
        "lat": -0.0008621138125237922,
        "lon": 25.388809896697733,
        "alt_km": 35791.47380479807,
        "timestamp": "2025-12-15T04:01:20.110421+00:00",
        "meta_object_name": "DIRECTV 8",
        "meta_object_id": "2005-019A",
        "meta_epoch": "2025-12-14T06:00:17.565120",
        "meta_mean_motion": 1.00272247,
        "meta_eccentricity": 0.00029572,
        "meta_inclination": 0.0265,
        "meta_ra_of_asc_node": 71.8481,
        "meta_arg_of_pericenter": 197.2233,
        "meta_mean_anomaly": 145.1306,
        "meta_ephemeris_type": 0,
        "meta_classification_type": "U",
        "meta_norad_cat_id": 28659,
        "meta_element_set_no": 999,
        "meta_rev_at_epoch": 7521,
        "meta_bstar": 0,
        "meta_mean_motion_dot": 1.9e-07,
        "meta_mean_motion_ddot": 0,
        "tle_line1": "1 28659U 05019A   25348.25020330  .00000019  00000+0  00000+0 0  9990",
        "tle_line2": "2 28659   0.0265  71.8481 0002957 197.2233 145.1306  1.00272247 75214"
      },
      "geometry": {
        "type": "Point",
        "coordinates": [
          25.388809896697733,
          -0.0008621138125237922
        ]
      }
    },
    {
      "type": "Feature",
      "properties": {
        "norad_id": 28702,
        "name": "GALAXY 28 (G-28)",
        "group": "intelsat",
        "lat": -1.1950792980839378,
        "lon": 55.7559551135423,
        "alt_km": 35796.57192654385,
        "timestamp": "2025-12-15T04:01:20.110434+00:00",
        "meta_object_name": "GALAXY 28 (G-28)",
        "meta_object_id": "2005-022A",
        "meta_epoch": "2025-12-14T06:08:54.239712",
        "meta_mean_motion": 1.00271507,
        "meta_eccentricity": 0.00028299,
        "meta_inclination": 2.8228,
        "meta_ra_of_asc_node": 81.2646,
        "meta_arg_of_pericenter": 186.1531,
        "meta_mean_anomaly": 179.2969,
        "meta_ephemeris_type": 0,
        "meta_classification_type": "U",
        "meta_norad_cat_id": 28702,
        "meta_element_set_no": 999,
        "meta_rev_at_epoch": 5012,
        "meta_bstar": 0,
        "meta_mean_motion_dot": -1.7e-06,
        "meta_mean_motion_ddot": 0,
        "tle_line1": "1 28702U 05022A   25348.25618333 -.00000170  00000+0  00000+0 0  9998",
        "tle_line2": "2 28702   2.8228  81.2646 0002829 186.1531 179.2969  1.00271507 50120"
      },
      "geometry": {
        "type": "Point",
        "coordinates": [
          55.7559551135423,
          -1.1950792980839378
        ]
      }
    },
    {
      "type": "Feature",
      "properties": {
        "norad_id": 29236,
        "name": "GALAXY 16 (G-16)",
        "group": "intelsat",
        "lat": 0.00581519323952846,
        "lon": 45.416459636820875,
        "alt_km": 35793.844665246215,
        "timestamp": "2025-12-15T04:01:20.110446+00:00",
        "meta_object_name": "GALAXY 16 (G-16)",
        "meta_object_id": "2006-023A",
        "meta_epoch": "2025-12-14T06:06:02.015136",
        "meta_mean_motion": 1.00272443,
        "meta_eccentricity": 0.00024463,
        "meta_inclination": 0.0414,
        "meta_ra_of_asc_node": 144.9049,
        "meta_arg_of_pericenter": 120.6411,
        "meta_mean_anomaly": 170.1349,
        "meta_ephemeris_type": 0,
        "meta_classification_type": "U",
        "meta_norad_cat_id": 29236,
        "meta_element_set_no": 999,
        "meta_rev_at_epoch": 7111,
        "meta_bstar": 0,
        "meta_mean_motion_dot": -1.09e-06,
        "meta_mean_motion_ddot": 0,
        "tle_line1": "1 29236U 06023A   25348.25418999 -.00000109  00000+0  00000+0 0  9991",
        "tle_line2": "2 29236   0.0414 144.9049 0002446 120.6411 170.1349  1.00272443 71113"
      },
      "geometry": {
        "type": "Point",
        "coordinates": [
          45.416459636820875,
          0.00581519323952846
        ]
      }
    },
    {
      "type": "Feature",
      "properties": {
        "norad_id": 29494,
        "name": "DIRECTV 9S",
        "group": "intelsat",
        "lat": -1.2297663790734865,
        "lon": 43.22926606742335,
        "alt_km": 35795.1094185501,
        "timestamp": "2025-12-15T04:01:20.110458+00:00",
        "meta_object_name": "DIRECTV 9S",
        "meta_object_id": "2006-043A",
        "meta_epoch": "2025-12-14T07:45:38.704032",
        "meta_mean_motion": 1.00271952,
        "meta_eccentricity": 0.00029162,
        "meta_inclination": 1.9443,
        "meta_ra_of_asc_node": 83.1953,
        "meta_arg_of_pericenter": 183.971,
        "meta_mean_anomaly": 191.2766,
        "meta_ephemeris_type": 0,
        "meta_classification_type": "U",
        "meta_norad_cat_id": 29494,
        "meta_element_set_no": 999,
        "meta_rev_at_epoch": 4953,
        "meta_bstar": 0,
        "meta_mean_motion_dot": -9.6e-07,
        "meta_mean_motion_ddot": 0,
        "tle_line1": "1 29494U 06043A   25348.32336463 -.00000096  00000+0  00000+0 0  9997",
        "tle_line2": "2 29494   1.9443  83.1953 0002916 183.9710 191.2766  1.00271952 49537"
      },
      "geometry": {
        "type": "Point",
        "coordinates": [
          43.22926606742335,
          -1.2297663790734865
        ]
      }
    }
  ]
}